STARLINK-30785          
1 58191U 23167S   26068.55719495  .00000823  00000+0  40356-4 0  9994
2 58191  42.9994 144.2469 0001287 264.4263  95.6441 15.26746987130961
FLOCK 4G-29             
1 62642U 25009AK  26068.81464037  .00011147  00000+0  41831-3 0  9994
2 62642  97.4058 151.3683 0001366 288.0502  72.0588 15.27382318 63721
